GLOBALSTAR M045 [-]     
1 25676U 99019A   24085.86250125  .00000014  00000+0  95083-3 0  9994
2 25676  51.9955 143.0589 0000828  98.4941  71.4279 12.27033950138357
GLOBALSTAR M019 [-]     
1 25677U 99019B   24086.56830698  .00000002  00000+0  95910-3 0  9998
2 25677  51.9864 239.9216 0001827 122.9813 312.9160 12.13854108130973
GLOBALSTAR M044 [-]     
1 25678U 99019C   24085.92772992 -.00000036  00000+0  65800-3 0  9993
2 25678  51.9951 136.9843 0006124 252.6112 278.2694 11.90230008117940
GLOBALSTAR M042 [-]     
1 25679U 99019D   24086.41973536 -.00000079  00000+0  12527-3 0  9991
2 25679  51.9999 234.9856 0003809  98.7559 296.4253 12.22058416130582
GLOBALSTAR M025 [-]     
1 25770U 99031A   24085.54368626 -.00000037  00000+0  94649-3 0  9997
2 25770  51.9791 118.5797 0001643 125.3414  44.9059 11.22549761431329
GLOBALSTAR M049 [-]     
1 25771U 99031B   24085.83713558  .00000037  00000+0  35613-2 0  9992
2 25771  51.9845 130.1314 0002575 343.5935  16.4778 11.12102982 67542
GLOBALSTAR M047 [-]     
1 25772U 99031C   24085.89819708 -.00000037  00000+0  90272-3 0  9997
2 25772  51.9819 169.7911 0016611 211.1470 148.8352 11.31919388420341
GLOBALSTAR M052 [-]     
1 25773U 99031D   24086.21082787 -.00000064  00000+0  55896-4 0  9998
2 25773  51.9848 244.2594 0003355 140.6487  29.1881 11.15049639 86368
